sat27132
1 27132U 01049CC  20046.87550023  .00000655  00000-0  45796-4 0  9992
2 27132  97.7978  39.7941 0047971 111.5772 316.6869 15.08041908   497
